OBJECT_NAME,OBJECT_ID,EPOCH,MEAN_MOTION,ECCENTRICITY,INCLINATION,RA_OF_ASC_NODE,ARG_OF_PERICENTER,MEAN_ANOMALY,EPHEMERIS_TYPE,CLASSIFICATION_TYPE,NORAD_CAT_ID,ELEMENT_SET_NO,REV_AT_EPOCH,BSTAR,MEAN_MOTION_DOT,MEAN_MOTION_DDOT
STARLINK-4768,2022-111AK,2026-05-22T15:28:49.963008,15.08842828,.0001323,53.2160,276.9646,86.8505,273.2638,0,U,53806,999,20519,.43599E-5,-.219E-5,0
BLUEWALKER-3,2022-111AL,2026-05-22T07:38:02.671008,15.37909309,.0007432,53.2272,155.3864,92.3138,267.8718,0,U,53807,999,20622,.14767E-3,.5198E-4,0
ZHONGXING-1E,2022-112A,2026-05-22T17:57:10.463328,1.00272446,.0001107,0.0170,268.2450,63.3359,259.4843,0,U,53813,999,1359,0,-.157E-5,0
STRIX-1,2022-113A,2026-05-22T16:47:49.093728,15.38541554,.0002488,97.4508,204.2919,349.9390,10.1805,0,U,53815,999,20352,.49242E-3,.18674E-3,0
STARLINK-4738,2022-114B,2026-05-22T13:11:45.002688,15.08831048,.0001146,53.2171,332.4216,108.2929,251.8188,0,U,53819,999,20398,.40744E-4,.361E-5,0
STARLINK-4758,2022-114C,2026-05-22T12:24:05.596416,15.08840341,.0001245,53.2174,332.9176,89.1263,270.9871,0,U,53820,999,20397,.58938E-5,-.194E-5,0
STARLINK-4748,2022-114F,2026-05-22T16:31:07.504320,15.08838653,.0001133,53.2175,286.9102,88.7045,271.4077,0,U,53823,999,20463,.44992E-5,-.216E-5,0
STARLINK-4757,2022-114G,2026-05-22T05:46:30.750816,15.08838421,.0001268,53.2171,333.3437,88.4762,271.6375,0,U,53824,999,20385,.66243E-4,.767E-5,0
STARLINK-4751,2022-114H,2026-05-21T21:55:00.433344,15.08845117,.00013228,53.2179,335.5481,106.0611,254.0527,0,U,53825,999,20388,-.23334954E-3,-.4E-4,0
STARLINK-4756,2022-114J,2026-05-22T13:22:20.167968,15.08834959,.000135,53.2160,332.4623,89.9348,270.1799,0,U,53826,999,20398,.56854E-4,.617E-5,0
STARLINK-4764,2022-114K,2026-05-22T05:41:19.849056,15.08836216,.0001408,53.2168,334.0165,91.7676,268.3478,0,U,53827,999,20393,.60997E-4,.683E-5,0
STARLINK-4760,2022-114L,2026-05-22T13:17:01.790016,15.08836728,.0001188,53.2166,332.4396,88.1514,271.9614,0,U,53828,999,20398,.3276E-4,.234E-5,0
STARLINK-4759,2022-114M,2026-05-22T13:32:57.107904,15.08835098,.0001309,53.2175,332.5068,93.3990,266.7152,0,U,53829,999,20398,.56063E-4,.604E-5,0
STARLINK-4761,2022-114N,2026-05-21T22:47:56.836896,15.08837272,.00012046,53.2172,335.0713,79.1893,280.9235,0,U,53830,999,20389,.40107427E-4,.35E-5,0
STARLINK-4649,2022-114P,2026-05-22T11:52:15.517056,15.08837528,.0001285,53.2169,332.7816,91.6649,268.4491,0,U,53831,999,20397,.22311E-4,.67E-6,0
STARLINK-4747,2022-114Q,2026-05-22T12:55:48.699840,15.08851086,.0001264,53.2174,332.3495,92.9653,267.1484,0,U,53832,999,20398,.88612E-4,.1123E-4,0
STARLINK-4771,2022-114R,2026-05-22T13:13:08.045184,15.08740225,.0001727,53.2156,332.4235,82.4019,277.7169,0,U,53833,999,20398,.13143E-2,.20634E-3,0
STARLINK-4737,2022-114S,2026-05-21T22:26:43.289664,15.08841687,.00014421,53.2179,334.9793,90.4230,269.6927,0,U,53834,999,20389,.19196199E-4,.18E-6,0
STARLINK-4783,2022-114T,2026-05-22T13:01:06.708000,15.08837804,.0001265,53.2165,332.3735,97.1586,262.9550,0,U,53835,999,20398,.13456E-3,.1854E-4,0
STARLINK-4778,2022-114U,2026-05-22T18:00:02.000160,15.25440507,.000098,53.2184,320.3315,86.3528,185.5816,0,U,53836,999,582,.14005E-2,.35706E-3,0
STARLINK-4776,2022-114V,2026-05-22T12:50:29.914944,15.08844709,.0001302,53.2175,332.3252,92.5849,267.5292,0,U,53837,999,20398,-.2231E-4,-.643E-5,0
STARLINK-4773,2022-114W,2026-05-21T21:56:20.231520,15.08842451,.00015389,53.2182,325.5713,95.4605,264.6563,0,U,53838,999,20402,.623457E-4,.704E-5,0
STARLINK-4784,2022-114X,2026-05-22T12:25:25.501728,15.08837441,.0001454,53.2184,322.9416,97.0029,263.1129,0,U,53839,999,20411,.2924E-4,.177E-5,0
STARLINK-4766,2022-114Y,2026-05-22T05:38:45.403008,15.08832569,.0001335,53.2174,324.0216,97.5839,262.5304,0,U,53840,999,20407,.7504E-4,.906E-5,0
STARLINK-4750,2022-114Z,2026-05-22T12:09:33.106752,15.08819560,.0000394,53.2206,322.8717,144.1264,215.9754,0,U,53841,999,20411,-.23337E-3,-.3997E-4,0
STARLINK-4754,2022-114AA,2026-05-22T11:48:17.242272,15.08844668,.0001305,53.2180,322.7792,102.2548,257.8590,0,U,53842,999,20411,.87625E-4,.1107E-4,0
STARLINK-4769,2022-114AB,2026-05-22T12:04:11.726400,15.08855924,.0001604,53.2177,322.8489,90.3904,269.7272,0,U,53843,999,20411,.13599E-3,.1878E-4,0
STARLINK-4745,2022-114AC,2026-05-22T11:37:41.898144,15.08837790,.0001489,53.2181,322.7338,93.7589,266.3573,0,U,53844,999,20411,.90697E-4,.1156E-4,0
STARLINK-4753,2022-114AD,2026-05-21T19:59:44.021760,15.08839572,.00013342,53.2181,325.7957,93.8756,266.2388,0,U,53845,999,20401,.6380645E-4,.728E-5,0
STARLINK-4746,2022-114AE,2026-05-22T11:27:03.489408,15.08837908,.00014,53.2164,322.6894,89.0852,271.0300,0,U,53846,999,20411,.39287E-4,.337E-5,0
