STARLINK-4768           
1 53806U 22111AK  26142.64502272 -.00000219  00000+0  43599-5 0  9999
2 53806  53.2160 276.9646 0001323  86.8505 273.2638 15.08842828205196
BLUEWALKER-3            
1 53807U 22111AL  26142.31808647  .00005198  00000+0  14767-3 0  9992
2 53807  53.2272 155.3864 0007432  92.3138 267.8718 15.37909309206227
ZHONGXING-1E            
1 53813U 22112A   26142.74803777 -.00000157  00000+0  00000+0 0  9998
2 53813   0.0170 268.2450 0001107  63.3359 259.4843  1.00272446 13594
STRIX-1                 
1 53815U 22113A   26142.69987377  .00018674  00000+0  49242-3 0  9991
2 53815  97.4508 204.2919 0002488 349.9390  10.1805 15.38541554203521
STARLINK-4738           
1 53819U 22114B   26142.54982642  .00000361  00000+0  40744-4 0  9993
2 53819  53.2171 332.4216 0001146 108.2929 251.8188 15.08831048203984
STARLINK-4758           
1 53820U 22114C   26142.51673144 -.00000194  00000+0  58938-5 0  9996
2 53820  53.2174 332.9176 0001245  89.1263 270.9871 15.08840341203973
STARLINK-4748           
1 53823U 22114F   26142.68828130 -.00000216  00000+0  44992-5 0  9994
2 53823  53.2175 286.9102 0001133  88.7045 271.4077 15.08838653204634
STARLINK-4757           
1 53824U 22114G   26142.24063369  .00000767  00000+0  66243-4 0  9994
2 53824  53.2171 333.3437 0001268  88.4762 271.6375 15.08838421203850
STARLINK-4751           
1 53825U 22114H   26141.91319946 -.00004000  00000+0 -23335-3 0  9993
2 53825  53.2179 335.5481 0001322 106.0611 254.0527 15.08845117203880
STARLINK-4756           
1 53826U 22114J   26142.55717787  .00000617  00000+0  56854-4 0  9991
2 53826  53.2160 332.4623 0001350  89.9348 270.1799 15.08834959203985
STARLINK-4764           
1 53827U 22114K   26142.23703529  .00000683  00000+0  60997-4 0  9992
2 53827  53.2168 334.0165 0001408  91.7676 268.3478 15.08836216203938
STARLINK-4760           
1 53828U 22114L   26142.55349294  .00000234  00000+0  32760-4 0  9992
2 53828  53.2166 332.4396 0001188  88.1514 271.9614 15.08836728203986
STARLINK-4759           
1 53829U 22114M   26142.56454986  .00000604  00000+0  56063-4 0  9992
2 53829  53.2175 332.5068 0001309  93.3990 266.7152 15.08835098203983
STARLINK-4761           
1 53830U 22114N   26141.94996339  .00000350  00000+0  40107-4 0  9998
2 53830  53.2172 335.0713 0001204  79.1893 280.9235 15.08837272203891
STARLINK-4649           
1 53831U 22114P   26142.49462404  .00000067  00000+0  22311-4 0  9993
2 53831  53.2169 332.7816 0001285  91.6649 268.4491 15.08837528203971
STARLINK-4747           
1 53832U 22114Q   26142.53875810  .00001123  00000+0  88612-4 0  9998
2 53832  53.2174 332.3495 0001264  92.9653 267.1484 15.08851086203987
STARLINK-4771           
1 53833U 22114R   26142.55078756  .00020634  00000+0  13143-2 0  9998
2 53833  53.2156 332.4235 0001727  82.4019 277.7169 15.08740225203984
STARLINK-4737           
1 53834U 22114S   26141.93522326  .00000018  00000+0  19196-4 0  9997
2 53834  53.2179 334.9793 0001442  90.4230 269.6927 15.08841687203890
STARLINK-4783           
1 53835U 22114T   26142.54243875  .00001854  00000+0  13456-3 0  9996
2 53835  53.2165 332.3735 0001265  97.1586 262.9550 15.08837804203989
STARLINK-4778           
1 53836U 22114U   26142.75002315  .00035706  00000+0  14005-2 0  9995
2 53836  53.2184 320.3315 0000980  86.3528 185.5816 15.25440507  5828
STARLINK-4776           
1 53837U 22114V   26142.53506846 -.00000643  00000+0 -22310-4 0  9994
2 53837  53.2175 332.3252 0001302  92.5849 267.5292 15.08844709203985
STARLINK-4773           
1 53838U 22114W   26141.91412305  .00000704  00000+0  62346-4 0  9991
2 53838  53.2182 325.5713 0001538  95.4605 264.6563 15.08842451204020
STARLINK-4784           
1 53839U 22114X   26142.51765627  .00000177  00000+0  29240-4 0  9997
2 53839  53.2184 322.9416 0001454  97.0029 263.1129 15.08837441204114
STARLINK-4766           
1 53840U 22114Y   26142.23524772  .00000906  00000+0  75040-4 0  9991
2 53840  53.2174 324.0216 0001335  97.5839 262.5304 15.08832569204077
STARLINK-4750           
1 53841U 22114Z   26142.50663318 -.00003997  00000+0 -23337-3 0  9998
2 53841  53.2206 322.8717 0000394 144.1264 215.9754 15.08819560204113
STARLINK-4754           
1 53842U 22114AA  26142.49186623  .00001107  00000+0  87625-4 0  9996
2 53842  53.2180 322.7792 0001305 102.2548 257.8590 15.08844668204110
STARLINK-4769           
1 53843U 22114AB  26142.50291350  .00001878  00000+0  13599-3 0  9996
2 53843  53.2177 322.8489 0001604  90.3904 269.7272 15.08855924204112
STARLINK-4745           
1 53844U 22114AC  26142.48451271  .00001156  00000+0  90697-4 0  9998
2 53844  53.2181 322.7338 0001489  93.7589 266.3573 15.08837790204115
STARLINK-4753           
1 53845U 22114AD  26141.83314840  .00000728  00000+0  63806-4 0  9993
2 53845  53.2181 325.7957 0001334  93.8756 266.2388 15.08839572204014
STARLINK-4746           
1 53846U 22114AE  26142.47712372  .00000337  00000+0  39287-4 0  9999
2 53846  53.2164 322.6894 0001400  89.0852 271.0300 15.08837908204110
